HELIOS 1B               
1 25977U 99064A   26113.30390059  .00000993  00000+0  11504-3 0  9994
2 25977  98.1654  16.8509 0000434  63.8066 296.3194 14.87852665691893
TERRA                   
1 25994U 99068A   26113.58918700  .00000260  00000+0  61881-4 0  9997
2 25994  97.9507 165.2878 0003311  61.4354  83.8557 14.61057925401636
SL-16 R/B               
1 26070U 00006B   26113.09883839  .00000171  00000+0  11086-3 0  9999
2 26070  71.0044   4.4595 0014657 117.7026 242.5586 14.15829081354842
TITAN 4B R/B            
1 26474U 00047B   26113.54734284  .00001989  00000+0  12845-3 0  9993
2 26474  67.9883 274.3340 0042255 344.1403  15.8420 15.09898885399682
ENVISAT                 
1 27386U 02009A   26113.33751536  .00000075  00000+0  38214-4 0  9996
2 27386  98.3794  65.8925 0001147  86.2309  63.8960 14.39051072265595
IDEFIX & ARIANE 42P R/B 
1 27422U 02021B   26113.38397134  .00000171  00000+0  81583-4 0  9990
2 27422  98.5917  51.4705 0012893  58.7054 301.5389 14.31053993250411
AQUA                    
1 27424U 02022A   26113.51800152  .00000597  00000+0  12877-3 0  9998
2 27424  98.4241  81.7252 0001997  98.7796 354.8794 14.62068942275282
CZ-4B R/B               
1 27432U 02024C   26113.13119429  .00000013  00000+0  29657-4 0  9995
2 27432  98.8750 166.2947 0049099 256.4402 122.6457 14.14555130235529
MIDORI II (ADEOS-II)    
1 27597U 02056A   26113.46619999  .00000205  00000+0  98208-4 0  9996
2 27597  98.7838  72.2754 0000679 146.0205 214.1020 14.29316730216692
H-2A R/B                
1 27601U 02056E   26113.45045228  .00000246  00000+0  10045-3 0  9996
2 27601  98.3273  72.1337 0070893  29.1733  84.5520 14.33791203220523
CZ-4B R/B               
1 28059U 03049C   26113.42587985  .00000268  00000+0  72882-4 0  9997
2 28059  98.6900 110.0972 0049341  95.0876 265.5954 14.55057576193109
CZ-2C R/B               
1 28222U 04012C   26113.17390202  .00053107  00000+0  43962-3 0  9992
2 28222  97.7136 182.8520 0013912 145.1781 215.0394 15.69980463211245
SL-16 R/B               
1 28353U 04021B   26113.43013996 -.00000196  00000+0 -77015-4 0  9997
2 28353  70.9990 138.6046 0006781 312.1424  47.9122 14.14604985129160
CZ-4B R/B               
1 28415U 04035C   26113.46370124  .00005320  00000+0  18428-3 0  9997
2 28415  97.3427 147.1753 0032130 166.5313 193.6793 15.29779089186758
CZ-2C R/B               
1 28480U 04046B   26113.15035904  .00000112  00000+0  56638-4 0  9991
2 28480  98.1969  25.3628 0139983  23.8893 336.8702 14.27009080114846
ARIANE 5 R/B            
1 28499U 04049H   26113.02740314  .00000678  00000+0  81280-4 0  9996
2 28499  98.2687 283.1634 0083492 206.5961 153.0958 14.85347279152375
CZ-2D R/B               
1 28738U 05024B   26113.03459748  .00036603  00000+0  38638-3 0  9990
2 28738  97.3549 129.9378 0004344 177.4860 182.6422 15.64129163146705
