[{"OBJECT_NAME":"HELIOS 1B","OBJECT_ID":"1999-064A","EPOCH":"2026-04-23T07:17:37.010976","MEAN_MOTION":14.87852665,"ECCENTRICITY":4.348e-5,"INCLINATION":98.1654,"RA_OF_ASC_NODE":16.8509,"ARG_OF_PERICENTER":63.8066,"MEAN_ANOMALY":296.3194,"EPHEMERIS_TYPE":0,"CLASSIFICATION_TYPE":"U","NORAD_CAT_ID":25977,"ELEMENT_SET_NO":999,"REV_AT_EPOCH":69189,"BSTAR":0.00011503641,"MEAN_MOTION_DOT":9.93e-6,"MEAN_MOTION_DDOT":0},{"OBJECT_NAME":"TERRA","OBJECT_ID":"1999-068A","EPOCH":"2026-04-23T14:08:25.756800","MEAN_MOTION":14.61057925,"ECCENTRICITY":0.0003311,"INCLINATION":97.9507,"RA_OF_ASC_NODE":165.2878,"ARG_OF_PERICENTER":61.4354,"MEAN_ANOMALY":83.8557,"EPHEMERIS_TYPE":0,"CLASSIFICATION_TYPE":"U","NORAD_CAT_ID":25994,"ELEMENT_SET_NO":999,"REV_AT_EPOCH":40163,"BSTAR":6.1881162e-5,"MEAN_MOTION_DOT":2.6e-6,"MEAN_MOTION_DDOT":0},{"OBJECT_NAME":"SL-16 R/B","OBJECT_ID":"2000-006B","EPOCH":"2026-04-23T02:22:19.636896","MEAN_MOTION":14.15829081,"ECCENTRICITY":0.00146577,"INCLINATION":71.0044,"RA_OF_ASC_NODE":4.4595,"ARG_OF_PERICENTER":117.7026,"MEAN_ANOMALY":242.5586,"EPHEMERIS_TYPE":0,"CLASSIFICATION_TYPE":"U","NORAD_CAT_ID":26070,"ELEMENT_SET_NO":999,"REV_AT_EPOCH":35484,"BSTAR":0.00011085689,"MEAN_MOTION_DOT":1.71e-6,"MEAN_MOTION_DDOT":0},{"OBJECT_NAME":"TITAN 4B R/B","OBJECT_ID":"2000-047B","EPOCH":"2026-04-23T13:08:10.421376","MEAN_MOTION":15.09898885,"ECCENTRICITY":0.00422557,"INCLINATION":67.9883,"RA_OF_ASC_NODE":274.334,"ARG_OF_PERICENTER":344.1403,"MEAN_ANOMALY":15.842,"EPHEMERIS_TYPE":0,"CLASSIFICATION_TYPE":"U","NORAD_CAT_ID":26474,"ELEMENT_SET_NO":999,"REV_AT_EPOCH":39968,"BSTAR":0.000128448,"MEAN_MOTION_DOT":1.989e-5,"MEAN_MOTION_DDOT":0},{"OBJECT_NAME":"ENVISAT","OBJECT_ID":"2002-009A","EPOCH":"2026-04-23T08:06:01.327104","MEAN_MOTION":14.39051072,"ECCENTRICITY":0.00011478,"INCLINATION":98.3794,"RA_OF_ASC_NODE":65.8925,"ARG_OF_PERICENTER":86.2309,"MEAN_ANOMALY":63.896,"EPHEMERIS_TYPE":0,"CLASSIFICATION_TYPE":"U","NORAD_CAT_ID":27386,"ELEMENT_SET_NO":999,"REV_AT_EPOCH":26559,"BSTAR":3.8213539e-5,"MEAN_MOTION_DOT":7.5e-7,"MEAN_MOTION_DDOT":0},{"OBJECT_NAME":"IDEFIX & ARIANE 42P R/B","OBJECT_ID":"2002-021B","EPOCH":"2026-04-23T09:12:55.123776","MEAN_MOTION":14.31053993,"ECCENTRICITY":0.00128934,"INCLINATION":98.5917,"RA_OF_ASC_NODE":51.4705,"ARG_OF_PERICENTER":58.7054,"MEAN_ANOMALY":301.5389,"EPHEMERIS_TYPE":0,"CLASSIFICATION_TYPE":"U","NORAD_CAT_ID":27422,"ELEMENT_SET_NO":999,"REV_AT_EPOCH":25041,"BSTAR":8.158251e-5,"MEAN_MOTION_DOT":1.71e-6,"MEAN_MOTION_DDOT":0},{"OBJECT_NAME":"AQUA","OBJECT_ID":"2002-022A","EPOCH":"2026-04-23T12:25:55.331328","MEAN_MOTION":14.62068942,"ECCENTRICITY":0.00019972,"INCLINATION":98.4241,"RA_OF_ASC_NODE":81.7252,"ARG_OF_PERICENTER":98.7796,"MEAN_ANOMALY":354.8794,"EPHEMERIS_TYPE":0,"CLASSIFICATION_TYPE":"U","NORAD_CAT_ID":27424,"ELEMENT_SET_NO":999,"REV_AT_EPOCH":27528,"BSTAR":0.00012876755,"MEAN_MOTION_DOT":5.97e-6,"MEAN_MOTION_DDOT":0},{"OBJECT_NAME":"CZ-4B R/B","OBJECT_ID":"2002-024C","EPOCH":"2026-04-23T03:08:55.186656","MEAN_MOTION":14.1455513,"ECCENTRICITY":0.00490995,"INCLINATION":98.875,"RA_OF_ASC_NODE":166.2947,"ARG_OF_PERICENTER":256.4402,"MEAN_ANOMALY":122.6457,"EPHEMERIS_TYPE":0,"CLASSIFICATION_TYPE":"U","NORAD_CAT_ID":27432,"ELEMENT_SET_NO":999,"REV_AT_EPOCH":23552,"BSTAR":2.965662e-5,"MEAN_MOTION_DOT":1.3e-7,"MEAN_MOTION_DDOT":0},{"OBJECT_NAME":"MIDORI II (ADEOS-II)","OBJECT_ID":"2002-056A","EPOCH":"2026-04-23T11:11:19.679136","MEAN_MOTION":14.2931673,"ECCENTRICITY":6.792e-5,"INCLINATION":98.7838,"RA_OF_ASC_NODE":72.2754,"ARG_OF_PERICENTER":146.0205,"MEAN_ANOMALY":214.102,"EPHEMERIS_TYPE":0,"CLASSIFICATION_TYPE":"U","NORAD_CAT_ID":27597,"ELEMENT_SET_NO":999,"REV_AT_EPOCH":21669,"BSTAR":9.8207877e-5,"MEAN_MOTION_DOT":2.05e-6,"MEAN_MOTION_DDOT":0},{"OBJECT_NAME":"H-2A R/B","OBJECT_ID":"2002-056E","EPOCH":"2026-04-23T10:48:39.076992","MEAN_MOTION":14.33791203,"ECCENTRICITY":0.00708933,"INCLINATION":98.3273,"RA_OF_ASC_NODE":72.1337,"ARG_OF_PERICENTER":29.1733,"MEAN_ANOMALY":84.552,"EPHEMERIS_TYPE":0,"CLASSIFICATION_TYPE":"U","NORAD_CAT_ID":27601,"ELEMENT_SET_NO":999,"REV_AT_EPOCH":22052,"BSTAR":0.00010044827,"MEAN_MOTION_DOT":2.46e-6,"MEAN_MOTION_DDOT":0},{"OBJECT_NAME":"CZ-4B R/B","OBJECT_ID":"2003-049C","EPOCH":"2026-04-23T10:13:16.019040","MEAN_MOTION":14.55057576,"ECCENTRICITY":0.00493415,"INCLINATION":98.69,"RA_OF_ASC_NODE":110.0972,"ARG_OF_PERICENTER":95.0876,"MEAN_ANOMALY":265.5954,"EPHEMERIS_TYPE":0,"CLASSIFICATION_TYPE":"U","NORAD_CAT_ID":28059,"ELEMENT_SET_NO":999,"REV_AT_EPOCH":19310,"BSTAR":7.2881728e-5,"MEAN_MOTION_DOT":2.68e-6,"MEAN_MOTION_DDOT":0},{"OBJECT_NAME":"CZ-2C R/B","OBJECT_ID":"2004-012C","EPOCH":"2026-04-23T04:10:25.134528","MEAN_MOTION":15.69980463,"ECCENTRICITY":0.00139126,"INCLINATION":97.7136,"RA_OF_ASC_NODE":182.852,"ARG_OF_PERICENTER":145.1781,"MEAN_ANOMALY":215.0394,"EPHEMERIS_TYPE":0,"CLASSIFICATION_TYPE":"U","NORAD_CAT_ID":28222,"ELEMENT_SET_NO":999,"REV_AT_EPOCH":21124,"BSTAR":0.00043962497,"MEAN_MOTION_DOT":0.00053107,"MEAN_MOTION_DDOT":0},{"OBJECT_NAME":"SL-16 R/B","OBJECT_ID":"2004-021B","EPOCH":"2026-04-23T10:19:24.092544","MEAN_MOTION":14.14604985,"ECCENTRICITY":0.00067815,"INCLINATION":70.999,"RA_OF_ASC_NODE":138.6046,"ARG_OF_PERICENTER":312.1424,"MEAN_ANOMALY":47.9122,"EPHEMERIS_TYPE":0,"CLASSIFICATION_TYPE":"U","NORAD_CAT_ID":28353,"ELEMENT_SET_NO":999,"REV_AT_EPOCH":12916,"BSTAR":-7.7014842e-5,"MEAN_MOTION_DOT":-1.96e-6,"MEAN_MOTION_DDOT":0},{"OBJECT_NAME":"CZ-4B R/B","OBJECT_ID":"2004-035C","EPOCH":"2026-04-23T11:07:43.787136","MEAN_MOTION":15.29779089,"ECCENTRICITY":0.00321308,"INCLINATION":97.3427,"RA_OF_ASC_NODE":147.1753,"ARG_OF_PERICENTER":166.5313,"MEAN_ANOMALY":193.6793,"EPHEMERIS_TYPE":0,"CLASSIFICATION_TYPE":"U","NORAD_CAT_ID":28415,"ELEMENT_SET_NO":999,"REV_AT_EPOCH":18675,"BSTAR":0.00018427887,"MEAN_MOTION_DOT":5.32e-5,"MEAN_MOTION_DDOT":0},{"OBJECT_NAME":"CZ-2C R/B","OBJECT_ID":"2004-046B","EPOCH":"2026-04-23T03:36:31.021056","MEAN_MOTION":14.2700908,"ECCENTRICITY":0.01399835,"INCLINATION":98.1969,"RA_OF_ASC_NODE":25.3628,"ARG_OF_PERICENTER":23.8893,"MEAN_ANOMALY":336.8702,"EPHEMERIS_TYPE":0,"CLASSIFICATION_TYPE":"U","NORAD_CAT_ID":28480,"ELEMENT_SET_NO":999,"REV_AT_EPOCH":11484,"BSTAR":5.6638006e-5,"MEAN_MOTION_DOT":1.12e-6,"MEAN_MOTION_DDOT":0},{"OBJECT_NAME":"ARIANE 5 R/B","OBJECT_ID":"2004-049H","EPOCH":"2026-04-23T00:39:27.631296","MEAN_MOTION":14.85347279,"ECCENTRICITY":0.00834928,"INCLINATION":98.2687,"RA_OF_ASC_NODE":283.1634,"ARG_OF_PERICENTER":206.5961,"MEAN_ANOMALY":153.0958,"EPHEMERIS_TYPE":0,"CLASSIFICATION_TYPE":"U","NORAD_CAT_ID":28499,"ELEMENT_SET_NO":999,"REV_AT_EPOCH":15237,"BSTAR":8.1280448e-5,"MEAN_MOTION_DOT":6.78e-6,"MEAN_MOTION_DDOT":0},{"OBJECT_NAME":"CZ-2D R/B","OBJECT_ID":"2005-024B","EPOCH":"2026-04-23T00:49:49.222272","MEAN_MOTION":15.64129163,"ECCENTRICITY":0.00043448,"INCLINATION":97.3549,"RA_OF_ASC_NODE":129.9378,"ARG_OF_PERICENTER":177.486,"MEAN_ANOMALY":182.6422,"EPHEMERIS_TYPE":0,"CLASSIFICATION_TYPE":"U","NORAD_CAT_ID":28738,"ELEMENT_SET_NO":999,"REV_AT_EPOCH":14670,"BSTAR":0.00038637863,"MEAN_MOTION_DOT":0.00036603,"MEAN_MOTION_DDOT":0}]
